{
  "type": "FeatureCollection",
  "features": [
    {
      "type": "Feature",
      "properties": {
        "norad_id": 66711,
        "name": "FLOCK 4H-8",
        "group": "last-30-days",
        "lat": 27.89042657888354,
        "lon": 66.21405115039437,
        "alt_km": 513.2720925225403,
        "timestamp": "2025-12-24T14:43:27.720083+00:00",
        "meta_object_name": "FLOCK 4H-8",
        "meta_object_id": "2025-276AX",
        "meta_epoch": "2025-12-24T03:31:22.233504",
        "meta_mean_motion": 15.17501697,
        "meta_eccentricity": 0.00023811,
        "meta_inclination": 97.4428,
        "meta_ra_of_asc_node": 69.7228,
        "meta_arg_of_pericenter": 261.4639,
        "meta_mean_anomaly": 98.6325,
        "meta_ephemeris_type": 0,
        "meta_classification_type": "U",
        "meta_norad_cat_id": 66711,
        "meta_element_set_no": 999,
        "meta_rev_at_epoch": 385,
        "meta_bstar": 0.00054211828,
        "meta_mean_motion_dot": 0.00010808,
        "meta_mean_motion_ddot": 0,
        "tle_line1": "1 66711U 25276AX  25358.14678511  .00010808  00000+0  54212-3 0  9992",
        "tle_line2": "2 66711  97.4428  69.7228 0002381 261.4639  98.6325 15.17501697  3857"
      },
      "geometry": {
        "type": "Point",
        "coordinates": [
          66.21405115039437,
          27.89042657888354
        ]
      }
    },
    {
      "type": "Feature",
      "properties": {
        "norad_id": 66712,
        "name": "FLOCK 4H-9",
        "group": "last-30-days",
        "lat": 69.93607597004639,
        "lon": 49.226734948464944,
        "alt_km": 506.6587927087003,
        "timestamp": "2025-12-24T14:43:27.720095+00:00",
        "meta_object_name": "FLOCK 4H-9",
        "meta_object_id": "2025-276AY",
        "meta_epoch": "2025-12-24T06:30:02.516544",
        "meta_mean_motion": 15.17937949,
        "meta_eccentricity": 0.00027173,
        "meta_inclination": 97.4421,
        "meta_ra_of_asc_node": 69.8608,
        "meta_arg_of_pericenter": 209.4343,
        "meta_mean_anomaly": 150.6738,
        "meta_ephemeris_type": 0,
        "meta_classification_type": "U",
        "meta_norad_cat_id": 66712,
        "meta_element_set_no": 999,
        "meta_rev_at_epoch": 387,
        "meta_bstar": 0.00064316487,
        "meta_mean_motion_dot": 0.00013001,
        "meta_mean_motion_ddot": 0,
        "tle_line1": "1 66712U 25276AY  25358.27086246  .00013001  00000+0  64316-3 0  9999",
        "tle_line2": "2 66712  97.4421  69.8608 0002717 209.4343 150.6738 15.17937949  3873"
      },
      "geometry": {
        "type": "Point",
        "coordinates": [
          49.226734948464944,
          69.93607597004639
        ]
      }
    },
    {
      "type": "Feature",
      "properties": {
        "norad_id": 66713,
        "name": "FLOCK 4H-10",
        "group": "last-30-days",
        "lat": 9.255732853054853,
        "lon": 68.93825378168795,
        "alt_km": 517.1778547474132,
        "timestamp": "2025-12-24T14:43:27.720107+00:00",
        "meta_object_name": "FLOCK 4H-10",
        "meta_object_id": "2025-276AZ",
        "meta_epoch": "2025-12-24T03:36:14.292288",
        "meta_mean_motion": 15.17294576,
        "meta_eccentricity": 0.00034586,
        "meta_inclination": 97.4392,
        "meta_ra_of_asc_node": 69.7034,
        "meta_arg_of_pericenter": 245.3697,
        "meta_mean_anomaly": 114.7177,
        "meta_ephemeris_type": 0,
        "meta_classification_type": "U",
        "meta_norad_cat_id": 66713,
        "meta_element_set_no": 999,
        "meta_rev_at_epoch": 385,
        "meta_bstar": 0.00060932999,
        "meta_mean_motion_dot": 0.00012087,
        "meta_mean_motion_ddot": 0,
        "tle_line1": "1 66713U 25276AZ  25358.15016542  .00012087  00000+0  60933-3 0  9993",
        "tle_line2": "2 66713  97.4392  69.7034 0003458 245.3697 114.7177 15.17294576  3855"
      },
      "geometry": {
        "type": "Point",
        "coordinates": [
          68.93825378168795,
          9.255732853054853
        ]
      }
    },
    {
      "type": "Feature",
      "properties": {
        "norad_id": 66714,
        "name": "FLOCK 4H-11",
        "group": "last-30-days",
        "lat": 40.83858811323172,
        "lon": 63.69639215575975,
        "alt_km": 510.192218488507,
        "timestamp": "2025-12-24T14:43:27.720118+00:00",
        "meta_object_name": "FLOCK 4H-11",
        "meta_object_id": "2025-276BA",
        "meta_epoch": "2025-12-24T05:02:59.541504",
        "meta_mean_motion": 15.17823275,
        "meta_eccentricity": 0.00020548,
        "meta_inclination": 97.4414,
        "meta_ra_of_asc_node": 69.7869,
        "meta_arg_of_pericenter": 269.2812,
        "meta_mean_anomaly": 90.8186,
        "meta_ephemeris_type": 0,
        "meta_classification_type": "U",
        "meta_norad_cat_id": 66714,
        "meta_element_set_no": 999,
        "meta_rev_at_epoch": 386,
        "meta_bstar": 0.00067840468,
        "meta_mean_motion_dot": 0.00013672,
        "meta_mean_motion_ddot": 0,
        "tle_line1": "1 66714U 25276BA  25358.21041136  .00013672  00000+0  67840-3 0  9993",
        "tle_line2": "2 66714  97.4414  69.7869 0002054 269.2812  90.8186 15.17823275  3861"
      },
      "geometry": {
        "type": "Point",
        "coordinates": [
          63.69639215575975,
          40.83858811323172
        ]
      }
    },
    {
      "type": "Feature",
      "properties": {
        "norad_id": 66715,
        "name": "FLOCK 4H-12",
        "group": "last-30-days",
        "lat": 80.26261173891133,
        "lon": 20.593025860604694,
        "alt_km": 504.7163430389455,
        "timestamp": "2025-12-24T14:43:27.720130+00:00",
        "meta_object_name": "FLOCK 4H-12",
        "meta_object_id": "2025-276BB",
        "meta_epoch": "2025-12-24T06:26:47.923008",
        "meta_mean_motion": 15.18009787,
        "meta_eccentricity": 0.00040885,
        "meta_inclination": 97.4412,
        "meta_ra_of_asc_node": 69.8621,
        "meta_arg_of_pericenter": 179.4633,
        "meta_mean_anomaly": 180.6606,
        "meta_ephemeris_type": 0,
        "meta_classification_type": "U",
        "meta_norad_cat_id": 66715,
        "meta_element_set_no": 999,
        "meta_rev_at_epoch": 418,
        "meta_bstar": -0.00064286509,
        "meta_mean_motion_dot": -0.0001311,
        "meta_mean_motion_ddot": 0,
        "tle_line1": "1 66715U 25276BB  25358.26861022 -.00013110  00000+0 -64287-3 0  9994",
        "tle_line2": "2 66715  97.4412  69.8621 0004088 179.4633 180.6606 15.18009787  4185"
      },
      "geometry": {
        "type": "Point",
        "coordinates": [
          20.593025860604694,
          80.26261173891133
        ]
      }
    },
    {
      "type": "Feature",
      "properties": {
        "norad_id": 66716,
        "name": "FLOCK 4H-13",
        "group": "last-30-days",
        "lat": 81.39157649600463,
        "lon": -50.10557125101783,
        "alt_km": 503.06800604835644,
        "timestamp": "2025-12-24T14:43:27.720142+00:00",
        "meta_object_name": "FLOCK 4H-13",
        "meta_object_id": "2025-276BC",
        "meta_epoch": "2025-12-24T06:23:52.113696",
        "meta_mean_motion": 15.17644812,
        "meta_eccentricity": 0.00048,
        "meta_inclination": 97.441,
        "meta_ra_of_asc_node": 69.8612,
        "meta_arg_of_pericenter": 114.7474,
        "meta_mean_anomaly": 245.426,
        "meta_ephemeris_type": 0,
        "meta_classification_type": "U",
        "meta_norad_cat_id": 66716,
        "meta_element_set_no": 999,
        "meta_rev_at_epoch": 387,
        "meta_bstar": -0.015896596,
        "meta_mean_motion_dot": -0.00306849,
        "meta_mean_motion_ddot": 0,
        "tle_line1": "1 66716U 25276BC  25358.26657539 -.00306849  00000+0 -15897-1 0  9996",
        "tle_line2": "2 66716  97.4410  69.8612 0004800 114.7474 245.4260 15.17644812  3875"
      },
      "geometry": {
        "type": "Point",
        "coordinates": [
          -50.10557125101783,
          81.39157649600463
        ]
      }
    },
    {
      "type": "Feature",
      "properties": {
        "norad_id": 66717,
        "name": "FLOCK 4H-14",
        "group": "last-30-days",
        "lat": 70.83499600566526,
        "lon": -87.704456918433,
        "alt_km": 502.8645289003116,
        "timestamp": "2025-12-24T14:43:27.720152+00:00",
        "meta_object_name": "FLOCK 4H-14",
        "meta_object_id": "2025-276BD",
        "meta_epoch": "2025-12-24T06:20:36.923136",
        "meta_mean_motion": 15.18362665,
        "meta_eccentricity": 0.00016981,
        "meta_inclination": 97.4413,
        "meta_ra_of_asc_node": 69.862,
        "meta_arg_of_pericenter": 131.3272,
        "meta_mean_anomaly": 228.8108,
        "meta_ephemeris_type": 0,
        "meta_classification_type": "U",
        "meta_norad_cat_id": 66717,
        "meta_element_set_no": 999,
        "meta_rev_at_epoch": 312,
        "meta_bstar": 0.00034791126,
        "meta_mean_motion_dot": 7.082e-05,
        "meta_mean_motion_ddot": 0,
        "tle_line1": "1 66717U 25276BD  25358.26431624  .00007082  00000+0  34791-3 0  9993",
        "tle_line2": "2 66717  97.4413  69.8620 0001698 131.3272 228.8108 15.18362665  3129"
      },
      "geometry": {
        "type": "Point",
        "coordinates": [
          -87.704456918433,
          70.83499600566526
        ]
      }
    }
  ]
}